CCSDS_OMM_VERS = 2.0
CREATION_DATE  = 
ORIGINATOR     = 

OBJECT_NAME    = STARLINK-36227
OBJECT_ID      = 2025-298W
CENTER_NAME    = EARTH
REF_FRAME      = TEME
TIME_SYSTEM    = UTC
MEAN_ELEMENT_THEORY = SGP/SGP4

EPOCH          = 2026-01-11T22:00:00.999936
MEAN_MOTION    = 15.42661456
ECCENTRICITY   = .000278
INCLINATION    = 69.9995
RA_OF_ASC_NODE = 165.6608
ARG_OF_PERICENTER = 279.0188
MEAN_ANOMALY   = 27.9245

EPHEMERIS_TYPE = 0
CLASSIFICATION_TYPE = U
NORAD_CAT_ID   = 67095
ELEMENT_SET_NO = 999
REV_AT_EPOCH   = 576
BSTAR          = .1249959E-2
MEAN_MOTION_DOT = .54885E-3
MEAN_MOTION_DDOT = 0

CCSDS_OMM_VERS = 2.0
CREATION_DATE  = 
ORIGINATOR     = 

OBJECT_NAME    = STARLINK-36228
OBJECT_ID      = 2025-298X
CENTER_NAME    = EARTH
REF_FRAME      = TEME
TIME_SYSTEM    = UTC
MEAN_ELEMENT_THEORY = SGP/SGP4

EPOCH          = 2026-01-11T22:00:00.999936
MEAN_MOTION    = 15.49489354
ECCENTRICITY   = .00038773
INCLINATION    = 69.9990
RA_OF_ASC_NODE = 165.5291
ARG_OF_PERICENTER = 282.3020
MEAN_ANOMALY   = 140.3689

EPHEMERIS_TYPE = 0
CLASSIFICATION_TYPE = U
NORAD_CAT_ID   = 67096
ELEMENT_SET_NO = 999
REV_AT_EPOCH   = 576
BSTAR          = -.41486414E-1
MEAN_MOTION_DOT = -.2044151E-1
MEAN_MOTION_DDOT = 0

CCSDS_OMM_VERS = 2.0
CREATION_DATE  = 
ORIGINATOR     = 

OBJECT_NAME    = STARLINK-36222
OBJECT_ID      = 2025-298Y
CENTER_NAME    = EARTH
REF_FRAME      = TEME
TIME_SYSTEM    = UTC
MEAN_ELEMENT_THEORY = SGP/SGP4

EPOCH          = 2026-01-11T22:00:00.999936
MEAN_MOTION    = 15.43036432
ECCENTRICITY   = .00032523
INCLINATION    = 69.9987
RA_OF_ASC_NODE = 165.5608
ARG_OF_PERICENTER = 276.0469
MEAN_ANOMALY   = 119.7082

EPHEMERIS_TYPE = 0
CLASSIFICATION_TYPE = U
NORAD_CAT_ID   = 67097
ELEMENT_SET_NO = 999
REV_AT_EPOCH   = 576
BSTAR          = -.12375778E-1
MEAN_MOTION_DOT = -.513265E-2
MEAN_MOTION_DDOT = 0

CCSDS_OMM_VERS = 2.0
CREATION_DATE  = 
ORIGINATOR     = 

OBJECT_NAME    = STARLINK-36205
OBJECT_ID      = 2025-298Z
CENTER_NAME    = EARTH
REF_FRAME      = TEME
TIME_SYSTEM    = UTC
MEAN_ELEMENT_THEORY = SGP/SGP4

EPOCH          = 2026-01-11T19:53:29.565888
MEAN_MOTION    = 15.42719255
ECCENTRICITY   = .00033546
INCLINATION    = 70.0009
RA_OF_ASC_NODE = 166.1038
ARG_OF_PERICENTER = 271.0287
MEAN_ANOMALY   = 89.0511

EPHEMERIS_TYPE = 0
CLASSIFICATION_TYPE = U
NORAD_CAT_ID   = 67098
ELEMENT_SET_NO = 999
REV_AT_EPOCH   = 449
BSTAR          = .12832155E-2
MEAN_MOTION_DOT = .56473E-3
MEAN_MOTION_DDOT = 0

CCSDS_OMM_VERS = 2.0
CREATION_DATE  = 
ORIGINATOR     = 

OBJECT_NAME    = STARLINK-36193
OBJECT_ID      = 2025-298AA
CENTER_NAME    = EARTH
REF_FRAME      = TEME
TIME_SYSTEM    = UTC
MEAN_ELEMENT_THEORY = SGP/SGP4

EPOCH          = 2026-01-11T19:18:13.241952
MEAN_MOTION    = 15.42743460
ECCENTRICITY   = .00033992
INCLINATION    = 70.0003
RA_OF_ASC_NODE = 166.4264
ARG_OF_PERICENTER = 272.6144
MEAN_ANOMALY   = 87.4649

EPHEMERIS_TYPE = 0
CLASSIFICATION_TYPE = U
NORAD_CAT_ID   = 67099
ELEMENT_SET_NO = 999
REV_AT_EPOCH   = 448
BSTAR          = .50807156E-3
MEAN_MOTION_DOT = .22189E-3
MEAN_MOTION_DDOT = 0

CCSDS_OMM_VERS = 2.0
CREATION_DATE  = 
ORIGINATOR     = 

OBJECT_NAME    = STARLINK-36215
OBJECT_ID      = 2025-298AB
CENTER_NAME    = EARTH
REF_FRAME      = TEME
TIME_SYSTEM    = UTC
MEAN_ELEMENT_THEORY = SGP/SGP4

EPOCH          = 2026-01-11T20:07:49.999296
MEAN_MOTION    = 15.51910988
ECCENTRICITY   = .00022299
INCLINATION    = 70.0008
RA_OF_ASC_NODE = 165.7279
ARG_OF_PERICENTER = 278.6038
MEAN_ANOMALY   = 81.4895

EPHEMERIS_TYPE = 0
CLASSIFICATION_TYPE = U
NORAD_CAT_ID   = 67100
ELEMENT_SET_NO = 999
REV_AT_EPOCH   = 450
BSTAR          = -.50586992E-2
MEAN_MOTION_DOT = -.293633E-2
MEAN_MOTION_DDOT = 0

CCSDS_OMM_VERS = 2.0
CREATION_DATE  = 
ORIGINATOR     = 

OBJECT_NAME    = STARLINK-36200
OBJECT_ID      = 2025-298AC
CENTER_NAME    = EARTH
REF_FRAME      = TEME
TIME_SYSTEM    = UTC
MEAN_ELEMENT_THEORY = SGP/SGP4

EPOCH          = 2026-01-11T19:30:08.635680
MEAN_MOTION    = 15.42698640
ECCENTRICITY   = .00031931
INCLINATION    = 70.0003
RA_OF_ASC_NODE = 166.0446
ARG_OF_PERICENTER = 262.5855
MEAN_ANOMALY   = 97.4964

EPHEMERIS_TYPE = 0
CLASSIFICATION_TYPE = U
NORAD_CAT_ID   = 67101
ELEMENT_SET_NO = 999
REV_AT_EPOCH   = 449
BSTAR          = .5545751E-3
MEAN_MOTION_DOT = .24203E-3
MEAN_MOTION_DDOT = 0

CCSDS_OMM_VERS = 2.0
CREATION_DATE  = 
ORIGINATOR     = 

OBJECT_NAME    = STARLINK-36255
OBJECT_ID      = 2025-299A
CENTER_NAME    = EARTH
REF_FRAME      = TEME
TIME_SYSTEM    = UTC
MEAN_ELEMENT_THEORY = SGP/SGP4

EPOCH          = 2026-01-11T18:13:30.894240
MEAN_MOTION    = 15.40716709
ECCENTRICITY   = .00015158
INCLINATION    = 42.9991
RA_OF_ASC_NODE = 137.0765
ARG_OF_PERICENTER = 266.2260
MEAN_ANOMALY   = 93.8423

EPHEMERIS_TYPE = 0
CLASSIFICATION_TYPE = U
NORAD_CAT_ID   = 67102
ELEMENT_SET_NO = 999
REV_AT_EPOCH   = 433
BSTAR          = .11611214E-2
MEAN_MOTION_DOT = .48536E-3
MEAN_MOTION_DDOT = 0

CCSDS_OMM_VERS = 2.0
CREATION_DATE  = 
ORIGINATOR     = 

OBJECT_NAME    = STARLINK-36256
OBJECT_ID      = 2025-299B
CENTER_NAME    = EARTH
REF_FRAME      = TEME
TIME_SYSTEM    = UTC
MEAN_ELEMENT_THEORY = SGP/SGP4

EPOCH          = 2026-01-11T15:00:20.981376
MEAN_MOTION    = 15.40736163
ECCENTRICITY   = .00021116
INCLINATION    = 43.0028
RA_OF_ASC_NODE = 137.7885
ARG_OF_PERICENTER = 269.7265
MEAN_ANOMALY   = 90.3349

EPHEMERIS_TYPE = 0
CLASSIFICATION_TYPE = U
NORAD_CAT_ID   = 67103
ELEMENT_SET_NO = 999
REV_AT_EPOCH   = 431
BSTAR          = .58058425E-3
MEAN_MOTION_DOT = .24055E-3
MEAN_MOTION_DDOT = 0

CCSDS_OMM_VERS = 2.0
CREATION_DATE  = 
ORIGINATOR     = 

OBJECT_NAME    = STARLINK-36258
OBJECT_ID      = 2025-299C
CENTER_NAME    = EARTH
REF_FRAME      = TEME
TIME_SYSTEM    = UTC
MEAN_ELEMENT_THEORY = SGP/SGP4

EPOCH          = 2026-01-11T15:28:16.493376
MEAN_MOTION    = 15.50596120
ECCENTRICITY   = .00019827
INCLINATION    = 43.0011
RA_OF_ASC_NODE = 137.0632
ARG_OF_PERICENTER = 278.7530
MEAN_ANOMALY   = 81.3105

EPHEMERIS_TYPE = 0
CLASSIFICATION_TYPE = U
NORAD_CAT_ID   = 67104
ELEMENT_SET_NO = 999
REV_AT_EPOCH   = 432
BSTAR          = .12442199E-2
MEAN_MOTION_DOT = .73384E-3
MEAN_MOTION_DDOT = 0

CCSDS_OMM_VERS = 2.0
CREATION_DATE  = 
ORIGINATOR     = 

OBJECT_NAME    = STARLINK-36261
OBJECT_ID      = 2025-299D
CENTER_NAME    = EARTH
REF_FRAME      = TEME
TIME_SYSTEM    = UTC
MEAN_ELEMENT_THEORY = SGP/SGP4

EPOCH          = 2026-01-11T16:36:55.715328
MEAN_MOTION    = 15.40727345
ECCENTRICITY   = .00021837
INCLINATION    = 43.0020
RA_OF_ASC_NODE = 137.4322
ARG_OF_PERICENTER = 269.9427
MEAN_ANOMALY   = 90.1179

EPHEMERIS_TYPE = 0
CLASSIFICATION_TYPE = U
NORAD_CAT_ID   = 67105
ELEMENT_SET_NO = 999
REV_AT_EPOCH   = 432
BSTAR          = .74105075E-3
MEAN_MOTION_DOT = .30806E-3
MEAN_MOTION_DDOT = 0

CCSDS_OMM_VERS = 2.0
CREATION_DATE  = 
ORIGINATOR     = 

OBJECT_NAME    = STARLINK-36259
OBJECT_ID      = 2025-299E
CENTER_NAME    = EARTH
REF_FRAME      = TEME
TIME_SYSTEM    = UTC
MEAN_ELEMENT_THEORY = SGP/SGP4

EPOCH          = 2026-01-11T17:44:28.866336
MEAN_MOTION    = 15.40696564
ECCENTRICITY   = .00009061
INCLINATION    = 42.9990
RA_OF_ASC_NODE = 136.9205
ARG_OF_PERICENTER = 272.5383
MEAN_ANOMALY   = 87.5369

EPHEMERIS_TYPE = 0
CLASSIFICATION_TYPE = U
NORAD_CAT_ID   = 67106
ELEMENT_SET_NO = 999
REV_AT_EPOCH   = 433
BSTAR          = .16407145E-2
MEAN_MOTION_DOT = .68846E-3
MEAN_MOTION_DDOT = 0

