STARLINK-36227          
1 67095U 25298W   26011.91667824  .00054885  00000+0  12500-2 0  9995
2 67095  69.9995 165.6608 0002780 279.0188  27.9245 15.42661456  5767
STARLINK-36228          
1 67096U 25298X   26011.91667824 -.02044151  00000+0 -41486-1 0  9999
2 67096  69.9990 165.5291 0003877 282.3020 140.3689 15.49489354  5764
STARLINK-36222          
1 67097U 25298Y   26011.91667824 -.00513265  00000+0 -12376-1 0  9991
2 67097  69.9987 165.5608 0003252 276.0469 119.7082 15.43036432  5763
STARLINK-36205          
1 67098U 25298Z   26011.82881442  .00056473  00000+0  12832-2 0  9995
2 67098  70.0009 166.1038 0003354 271.0287  89.0511 15.42719255  4497
STARLINK-36193          
1 67099U 25298AA  26011.80431993  .00022189  00000+0  50807-3 0  9998
2 67099  70.0003 166.4264 0003399 272.6144  87.4649 15.42743460  4482
STARLINK-36215          
1 67100U 25298AB  26011.83877314 -.00293633  00000+0 -50587-2 0  9995
2 67100  70.0008 165.7279 0002229 278.6038  81.4895 15.51910988  4508
STARLINK-36200          
1 67101U 25298AC  26011.81259995  .00024203  00000+0  55458-3 0  9999
2 67101  70.0003 166.0446 0003193 262.5855  97.4964 15.42698640  4494
STARLINK-36255          
1 67102U 25299A   26011.75938535  .00048536  00000+0  11611-2 0  9995
2 67102  42.9991 137.0765 0001515 266.2260  93.8423 15.40716709  4336
STARLINK-36256          
1 67103U 25299B   26011.62524284  .00024055  00000+0  58058-3 0  9991
2 67103  43.0028 137.7885 0002111 269.7265  90.3349 15.40736163  4319
STARLINK-36258          
1 67104U 25299C   26011.64463534  .00073384  00000+0  12442-2 0  9999
2 67104  43.0011 137.0632 0001982 278.7530  81.3105 15.50596120  4324
STARLINK-36261          
1 67105U 25299D   26011.69231152  .00030806  00000+0  74105-3 0  9991
2 67105  43.0020 137.4322 0002183 269.9427  90.1179 15.40727345  4329
STARLINK-36259          
1 67106U 25299E   26011.73922299  .00068846  00000+0  16407-2 0  9991
2 67106  42.9990 136.9205 0000906 272.5383  87.5369 15.40696564  4330
